NORAD_CAT_ID,OBJECT_NAME,OBJECT_TYPE,EPOCH,MEAN_MOTION,ECCENTRICITY,INCLINATION,RA_OF_ASC_NODE,ARG_OF_PERICENTER,MEAN_ANOMALY,BSTAR,MEAN_MOTION_DOT,MEAN_MOTION_DDOT,TLE_LINE0,TLE_LINE1,TLE_LINE2,SEMIMAJOR_AXIS,PERIOD,APOGEE,PERIGEE,DECAYED
56805.0,STARLINK-6064,PAYLOAD,2023-08-27 05:32:25,15.69913244,0.0002869,69.9979,165.9935,267.7946,92.2922,1.092e-05,1.1e-05,0.0,0 STARLINK-6064,1 56805U 23078AQ  23239.23084640  .00001100  00000-0  10920-4 0  9998,2 56805  69.9979 165.9935 0002869 267.7946  92.2922 15.69913244 13856,6737.282,91.725,361.08,357.214,0.0
56805.0,STARLINK-6064,PAYLOAD,2023-08-27 20:49:56,15.69915069,0.0003268,69.9989,164.204,274.5961,85.4861,1.6917e-05,1.821e-05,0.0,0 STARLINK-6064,1 56805U 23078AQ  23239.86801027  .00001821  00000-0  16917-4 0  9995,2 56805  69.9989 164.2040 0003268 274.5961  85.4861 15.69915069 13957,6737.277,91.725,361.344,356.94,0.0
56805.0,STARLINK-6064,PAYLOAD,2023-08-27 22:21:41,15.69919781,0.0003261,69.9983,164.0249,273.887,86.1952,8.9489e-06,8.63e-06,0.0,0 STARLINK-6064,1 56805U 23078AQ  23239.93172786  .00000863  00000-0  89489-5 0  9996,2 56805  69.9983 164.0249 0003261 273.8870  86.1952 15.69919781 14229,6737.264,91.724,361.326,356.931,0.0
56805.0,STARLINK-6064,PAYLOAD,2023-08-28 06:00:22,15.6999855,0.0002016,69.9982,163.1296,307.6602,52.441,9.948e-05,0.00011801,0.0,0 STARLINK-6064,1 56805U 23078AQ  23240.25025604  .00011801  00000-0  99480-4 0  9994,2 56805  69.9982 163.1296 0002016 307.6602  52.4410 15.69998550 14277,6737.038,91.72,360.261,357.545,0.0
56805.0,STARLINK-6064,PAYLOAD,2023-08-28 12:07:27,15.69917867,0.0003985,69.9976,162.4126,272.2673,87.8066,-1.7388e-05,-2.303e-05,0.0,0 STARLINK-6064,1 56805U 23078AQ  23240.50518379 -.00002303  00000-0 -17388-4 0  9994,2 56805  69.9976 162.4126 0003985 272.2673  87.8066 15.69917867 14311,6737.269,91.725,361.819,356.449,0.0
56805.0,STARLINK-6064,PAYLOAD,2023-08-28 21:17:57,15.69927042,0.0003574,69.9979,161.3375,272.8655,87.2132,-6.2699e-07,-2.88e-06,0.0,0 STARLINK-6064,1 56805U 23078AQ  23240.88747559 -.00000288  00000-0 -62699-6 0  9996,2 56805  69.9979 161.3375 0003574 272.8655  87.2132 15.69927042 14110,6737.243,91.724,361.516,356.7,0.0
56805.0,STARLINK-6064,PAYLOAD,2023-08-29 20:14:14,15.69921421,0.0003837,69.9974,158.6505,274.8676,85.2082,7.3681e-06,6.73e-06,0.0,0 STARLINK-6064,1 56805U 23078AQ  23241.84322875  .00000673  00000-0  73681-5 0  9991,2 56805  69.9974 158.6505 0003837 274.8676  85.2082 15.69921421 14269,6737.259,91.724,361.709,356.539,0.0
56805.0,STARLINK-6064,PAYLOAD,2023-08-30 11:31:40,15.69952615,0.0004345,69.9982,156.861,301.7048,58.3724,0.0003107,0.00037364,0.0,0 STARLINK-6064,1 56805U 23078AQ  23242.48032665  .00037364  00000-0  31070-3 0  9998,2 56805  69.9982 156.8610 0004345 301.7048  58.3724 15.69952615 14626,6737.17,91.723,361.962,356.107,0.0
56805.0,STARLINK-6064,PAYLOAD,2023-08-31 07:24:27,15.69944157,0.000343,69.9974,154.5316,282.9755,77.1058,8.9253e-06,8.61e-06,0.0,0 STARLINK-6064,1 56805U 23078AQ  23243.30864737  .00000861  00000-0  89253-5 0  9993,2 56805  69.9974 154.5316 0003430 282.9755  77.1058 15.69944157 14759,6737.194,91.723,361.37,356.748,0.0
56805.0,STARLINK-6064,PAYLOAD,2023-08-31 08:56:17,15.69919384,0.0004556,69.9981,154.3521,255.1852,104.8839,1.9307e-06,1.9e-07,0.0,0 STARLINK-6064,1 56805U 23078AQ  23243.37243040  .00000019  00000-0  19307-5 0  9996,2 56805  69.9981 154.3521 0004556 255.1852 104.8839 15.69919384 14763,6737.265,91.724,362.199,356.06,0.0
56805.0,STARLINK-6064,PAYLOAD,2023-09-01 10:56:01,15.69899184,0.0002651,69.9958,151.3095,264.1835,95.9059,-9.3064e-05,-0.00011374,0.0,0 STARLINK-6064,1 56805U 23078AQ  23244.45557607 -.00011374  00000-0 -93064-4 0  9992,2 56805  69.9958 151.3095 0002651 264.1835  95.9059 15.69899184 14933,6737.322,91.726,360.973,357.401,0.0
56805.0,STARLINK-6064,PAYLOAD,2023-09-01 17:02:59,15.69986041,0.0006905,69.9868,150.5926,259.2334,100.8084,6.9427e-05,8.171e-05,0.0,0 STARLINK-6064,1 56805U 23078AQ  23244.71041381  .00008171  00000-0  69427-4 0  9993,2 56805  69.9868 150.5926 0006905 259.2334 100.8084 15.69986041 14979,6737.074,91.721,363.591,354.287,0.0
56805.0,STARLINK-6064,PAYLOAD,2023-09-01 21:38:20,15.69926309,0.0003107,69.9989,150.0526,272.6636,87.4204,5.646e-06,4.66e-06,0.0,0 STARLINK-6064,1 56805U 23078AQ  23244.90162839  .00000466  00000-0  56460-5 0  9999,2 56805  69.9989 150.0526 0003107 272.6636  87.4204 15.69926309 15009,6737.245,91.724,361.203,357.017,0.0
56805.0,STARLINK-6064,PAYLOAD,2023-09-02 03:45:21,15.69920549,0.0003183,69.9984,149.3359,274.9494,85.1338,-5.7982e-07,-2.82e-06,0.0,0 STARLINK-6064,1 56805U 23078AQ  23245.15649966 -.00000282  00000-0 -57982-6 0  9997,2 56805  69.9984 149.3359 0003183 274.9494  85.1338 15.69920549 15047,6737.261,91.724,361.271,356.982,0.0
56805.0,STARLINK-6064,PAYLOAD,2023-09-02 11:24:07,15.69919854,0.000335,69.9983,148.4396,268.3785,91.7027,3.471e-06,2.05e-06,0.0,0 STARLINK-6064,1 56805U 23078AQ  23245.47508345  .00000205  00000-0  34710-5 0  9993,2 56805  69.9983 148.4396 0003350 268.3785  91.7027 15.69919854 14834,6737.263,91.724,361.385,356.871,0.0
56805.0,STARLINK-6064,PAYLOAD,2023-09-02 17:31:07,15.69920074,0.0003344,69.9982,147.7231,268.2103,91.871,3.2811e-06,1.82e-06,0.0,0 STARLINK-6064,1 56805U 23078AQ  23245.72995074  .00000182  00000-0  32811-5 0  9994,2 56805  69.9982 147.7231 0003344 268.2103  91.8710 15.69920074 14879,6737.263,91.724,361.381,356.875,0.0
56805.0,STARLINK-6064,PAYLOAD,2023-09-03 02:41:37,15.69929694,0.0003335,69.9961,146.6478,277.0785,83.0032,8.5736e-06,8.18e-06,0.0,0 STARLINK-6064,1 56805U 23078AQ  23246.11224269  .00000818  00000-0  85736-5 0  9999,2 56805  69.9961 146.6478 0003335 277.0785  83.0032 15.69929694 15194,6737.235,91.724,361.347,356.853,0.0
56805.0,STARLINK-6064,PAYLOAD,2023-09-03 10:20:24,15.69914075,0.0003566,69.9967,145.7524,269.4716,90.6071,-5.617e-06,-8.88e-06,0.0,0 STARLINK-6064,1 56805U 23078AQ  23246.43083832 -.00000888  00000-0 -56170-5 0  9992,2 56805  69.9967 145.7524 0003566 269.4716  90.6071 15.69914075 15247,6737.28,91.725,361.547,356.742,0.0
56805.0,STARLINK-6064,PAYLOAD,2023-09-04 10:48:25,15.69928875,0.0003536,69.9982,142.8863,268.2138,91.8653,1.6386e-05,1.758e-05,0.0,0 STARLINK-6064,1 56805U 23078AQ  23247.45029674  .00001758  00000-0  16386-4 0  9998,2 56805  69.9982 142.8863 0003536 268.2138  91.8653 15.69928875 15141,6737.237,91.724,361.485,356.72,0.0
56805.0,STARLINK-6064,PAYLOAD,2023-09-04 16:55:25,15.69936028,0.000359,69.9968,142.1698,268.5103,91.5682,7.0303e-06,6.33e-06,0.0,0 STARLINK-6064,1 56805U 23078AQ  23247.70516000  .00000633  00000-0  70303-5 0  9991,2 56805  69.9968 142.1698 0003590 268.5103  91.5682 15.69936028 15440,6737.217,91.723,361.501,356.663,0.0
56805.0,STARLINK-6064,PAYLOAD,2023-09-05 03:37:41,15.69927017,0.0003662,69.9987,140.9145,272.5564,87.5212,1.2925e-05,1.342e-05,0.0,0 STARLINK-6064,1 56805U 23078AQ  23248.15118003  .00001342  00000-0  12925-4 0  9995,2 56805  69.9987 140.9145 0003662 272.5564  87.5212 15.69927017 15510,6737.243,91.724,361.575,356.641,0.0
56805.0,STARLINK-6064,PAYLOAD,2023-09-05 23:30:55,15.69496296,0.0006952,70.0,138.5879,227.3961,132.6649,-0.00045619,-0.00053823,0.0,0 STARLINK-6064,1 56805U 23078AQ  23248.97981414 -.00053823  00000-0 -45619-3 0  9997,2 56805  70.0000 138.5879 0006952 227.3961 132.6649 15.69496296 15640,6738.475,91.749,365.025,355.656,0.0
56805.0,STARLINK-6064,PAYLOAD,2023-09-06 12:00:00,15.69857376,0.0003542,69.9986,137.1226,270.0433,150.9556,0.00083905,0.00101628,0.0,0 STARLINK-6064,1 56805U 23078AQ  23249.50001157  .00101628  00000-0  83905-3 0  9999,2 56805  69.9986 137.1226 0003542 270.0433 150.9556 15.69857376 15721,6737.442,91.728,361.693,356.921,0.0
56805.0,STARLINK-6064,PAYLOAD,2023-09-06 14:00:01,15.69866446,0.000354,69.9984,136.8884,269.2628,262.5577,0.00089075,0.00108026,0.0,0 STARLINK-6064,1 56805U 23078AQ  23249.58334491  .00108026  00000-0  89075-3 0  9990,2 56805  69.9984 136.8884 0003540 269.2628 262.5577 15.69866446  5909,6737.416,91.728,361.666,356.896,0.0
56805.0,STARLINK-6064,PAYLOAD,2023-09-06 16:00:00,15.69913686,0.0003534,69.9987,136.654,269.3503,13.2825,0.00027976,0.00033547,0.0,0 STARLINK-6064,1 56805U 23078AQ  23249.66667824  .00033547  00000-0  27976-3 0  9995,2 56805  69.9987 136.6540 0003534 269.3503  13.2825 15.69913686  5912,6737.281,91.725,361.527,356.765,0.0
56805.0,STARLINK-6064,PAYLOAD,2023-09-07 03:02:01,15.69935601,0.0001648,69.9976,135.3594,260.7398,99.3611,-6.2521e-06,-9.64e-06,0.0,0 STARLINK-6064,1 56805U 23078AQ  23250.12640722 -.00000964  00000-0 -62521-5 0  9992,2 56805  69.9976 135.3594 0001648 260.7398  99.3611 15.69935601 15826,6737.218,91.724,360.194,357.973,0.0
56805.0,STARLINK-6064,PAYLOAD,2023-09-07 15:16:02,15.69928471,0.0003305,69.9974,133.9288,249.4882,110.5959,9.5406e-06,9.35e-06,0.0,0 STARLINK-6064,1 56805U 23078AQ  23250.63613439  .00000935  00000-0  95406-5 0  9997,2 56805  69.9974 133.9288 0003305 249.4882 110.5959 15.69928471 15640,6737.239,91.724,361.33,356.877,0.0
56805.0,STARLINK-6064,PAYLOAD,2023-09-08 01:58:17,15.70007264,0.0003503,69.9955,132.6752,267.7582,92.3213,-0.00013847,-0.00016887,0.0,0 STARLINK-6064,1 56805U 23078AQ  23251.08214393 -.00016887  00000-0 -13847-3 0  9995,2 56805  69.9955 132.6752 0003503 267.7582  92.3213 15.70007264 15977,6737.013,91.719,361.238,356.518,0.0
56805.0,STARLINK-6064,PAYLOAD,2023-09-08 18:47:34,15.6991953,0.0003749,69.9963,130.704,270.6221,89.4545,3.6685e-06,2.28e-06,0.0,0 STARLINK-6064,1 56805U 23078AQ  23251.78304267  .00000228  00000-0  36685-5 0  9999,2 56805  69.9963 130.7040 0003749 270.6221  89.4545 15.69919530 16084,6737.264,91.724,361.655,356.603,0.0
56805.0,STARLINK-6064,PAYLOAD,2023-09-09 02:26:20,15.69924699,0.0003258,69.996,129.8073,263.8102,96.2722,5.7343e-06,4.77e-06,0.0,0 STARLINK-6064,1 56805U 23078AQ  23252.10162343  .00000477  00000-0  57343-5 0  9993,2 56805  69.9960 129.8073 0003258 263.8102  96.2722 15.69924699 15874,6737.249,91.724,361.309,356.919,0.0
